window._tle = "PEGASUS\n1 42784U 17036V   21231.57762649  .00001571  00000-0  66273-4 0  9999\n2 42784  97.2457 278.6200 0010130 323.8847  36.1706 15.24689091230975";
